[{"OBJECT_NAME":"ONEWEB-0703","OBJECT_ID":"2023-068Q","EPOCH":"2025-12-21T03:10:00.653664","MEAN_MOTION":13.15551193,"ECCENTRICITY":0.0002812,"INCLINATION":87.8998,"RA_OF_ASC_NODE":294.7416,"ARG_OF_PERICENTER":69.4976,"MEAN_ANOMALY":290.6456,"EPHEMERIS_TYPE":0,"CLASSIFICATION_TYPE":"U","NORAD_CAT_ID":56724,"ELEMENT_SET_NO":999,"REV_AT_EPOCH":12584,"BSTAR":0.00069725,"MEAN_MOTION_DOT":2.75e-6,"MEAN_MOTION_DDOT":0},{"OBJECT_NAME":"ONEWEB-0721","OBJECT_ID":"2023-068R","EPOCH":"2025-12-21T02:42:38.500704","MEAN_MOTION":13.2245428,"ECCENTRICITY":0.0001486,"INCLINATION":86.6803,"RA_OF_ASC_NODE":142.3266,"ARG_OF_PERICENTER":99.5354,"MEAN_ANOMALY":260.5947,"EPHEMERIS_TYPE":0,"CLASSIFICATION_TYPE":"U","NORAD_CAT_ID":56725,"ELEMENT_SET_NO":999,"REV_AT_EPOCH":13440,"BSTAR":-0.00012317,"MEAN_MOTION_DOT":-3.7e-7,"MEAN_MOTION_DDOT":0},{"OBJECT_NAME":"ONEWEB-0015","OBJECT_ID":"2024-188A","EPOCH":"2025-12-21T03:45:22.339584","MEAN_MOTION":13.11417035,"ECCENTRICITY":0.0002248,"INCLINATION":87.8844,"RA_OF_ASC_NODE":56.5502,"ARG_OF_PERICENTER":115.0324,"MEAN_ANOMALY":245.1037,"EPHEMERIS_TYPE":0,"CLASSIFICATION_TYPE":"U","NORAD_CAT_ID":61594,"ELEMENT_SET_NO":999,"REV_AT_EPOCH":6112,"BSTAR":0.0013095,"MEAN_MOTION_DOT":4.77e-6,"MEAN_MOTION_DDOT":0},{"OBJECT_NAME":"ONEWEB-0687","OBJECT_ID":"2024-188B","EPOCH":"2025-12-21T03:51:03.687840","MEAN_MOTION":13.17648258,"ECCENTRICITY":0.0001751,"INCLINATION":87.9096,"RA_OF_ASC_NODE":41.2943,"ARG_OF_PERICENTER":118.473,"MEAN_ANOMALY":241.6578,"EPHEMERIS_TYPE":0,"CLASSIFICATION_TYPE":"U","NORAD_CAT_ID":61595,"ELEMENT_SET_NO":999,"REV_AT_EPOCH":6245,"BSTAR":0.00011649,"MEAN_MOTION_DOT":5.8e-7,"MEAN_MOTION_DDOT":0},{"OBJECT_NAME":"ONEWEB-0688","OBJECT_ID":"2024-188C","EPOCH":"2025-12-21T02:43:01.852896","MEAN_MOTION":13.1764816,"ECCENTRICITY":0.0002687,"INCLINATION":87.9089,"RA_OF_ASC_NODE":41.3028,"ARG_OF_PERICENTER":119.9298,"MEAN_ANOMALY":240.21,"EPHEMERIS_TYPE":0,"CLASSIFICATION_TYPE":"U","NORAD_CAT_ID":61596,"ELEMENT_SET_NO":999,"REV_AT_EPOCH":6244,"BSTAR":0.00027086,"MEAN_MOTION_DOT":1.18e-6,"MEAN_MOTION_DDOT":0},{"OBJECT_NAME":"ONEWEB-0689","OBJECT_ID":"2024-188D","EPOCH":"2025-12-21T02:44:19.039200","MEAN_MOTION":13.11413206,"ECCENTRICITY":0.0001504,"INCLINATION":87.8842,"RA_OF_ASC_NODE":56.4936,"ARG_OF_PERICENTER":109.956,"MEAN_ANOMALY":250.173,"EPHEMERIS_TYPE":0,"CLASSIFICATION_TYPE":"U","NORAD_CAT_ID":61597,"ELEMENT_SET_NO":999,"REV_AT_EPOCH":6111,"BSTAR":-0.00041485,"MEAN_MOTION_DOT":-1.34e-6,"MEAN_MOTION_DDOT":0},{"OBJECT_NAME":"ONEWEB-0690","OBJECT_ID":"2024-188E","EPOCH":"2025-12-21T04:48:49.464000","MEAN_MOTION":13.11414153,"ECCENTRICITY":0.0002192,"INCLINATION":87.8865,"RA_OF_ASC_NODE":56.4917,"ARG_OF_PERICENTER":86.0672,"MEAN_ANOMALY":274.0706,"EPHEMERIS_TYPE":0,"CLASSIFICATION_TYPE":"U","NORAD_CAT_ID":61598,"ELEMENT_SET_NO":999,"REV_AT_EPOCH":6130,"BSTAR":-0.0014589,"MEAN_MOTION_DOT":-5.04e-6,"MEAN_MOTION_DDOT":0},{"OBJECT_NAME":"ONEWEB-0691","OBJECT_ID":"2024-188F","EPOCH":"2025-12-21T04:41:29.854752","MEAN_MOTION":13.11413121,"ECCENTRICITY":0.0002029,"INCLINATION":87.8836,"RA_OF_ASC_NODE":56.3914,"ARG_OF_PERICENTER":113.0763,"MEAN_ANOMALY":247.0579,"EPHEMERIS_TYPE":0,"CLASSIFICATION_TYPE":"U","NORAD_CAT_ID":61599,"ELEMENT_SET_NO":999,"REV_AT_EPOCH":6115,"BSTAR":-0.00093122,"MEAN_MOTION_DOT":-3.17e-6,"MEAN_MOTION_DDOT":0},{"OBJECT_NAME":"ONEWEB-0692","OBJECT_ID":"2024-188G","EPOCH":"2025-12-21T03:20:55.876704","MEAN_MOTION":13.11418555,"ECCENTRICITY":9.52e-5,"INCLINATION":87.8849,"RA_OF_ASC_NODE":56.5474,"ARG_OF_PERICENTER":79.7863,"MEAN_ANOMALY":280.3373,"EPHEMERIS_TYPE":0,"CLASSIFICATION_TYPE":"U","NORAD_CAT_ID":61600,"ELEMENT_SET_NO":999,"REV_AT_EPOCH":6113,"BSTAR":-0.00078654,"MEAN_MOTION_DOT":-2.66e-6,"MEAN_MOTION_DDOT":0},{"OBJECT_NAME":"ONEWEB-0693","OBJECT_ID":"2024-188H","EPOCH":"2025-12-21T04:49:23.669760","MEAN_MOTION":13.17649971,"ECCENTRICITY":0.0002567,"INCLINATION":87.9093,"RA_OF_ASC_NODE":41.3057,"ARG_OF_PERICENTER":89.5425,"MEAN_ANOMALY":270.6,"EPHEMERIS_TYPE":0,"CLASSIFICATION_TYPE":"U","NORAD_CAT_ID":61601,"ELEMENT_SET_NO":999,"REV_AT_EPOCH":6244,"BSTAR":0.00012629,"MEAN_MOTION_DOT":6.2e-7,"MEAN_MOTION_DDOT":0},{"OBJECT_NAME":"ONEWEB-0695","OBJECT_ID":"2024-188J","EPOCH":"2025-12-21T02:46:45.324768","MEAN_MOTION":13.11413328,"ECCENTRICITY":0.0001175,"INCLINATION":87.8851,"RA_OF_ASC_NODE":56.5412,"ARG_OF_PERICENTER":108.2738,"MEAN_ANOMALY":251.8518,"EPHEMERIS_TYPE":0,"CLASSIFICATION_TYPE":"U","NORAD_CAT_ID":61602,"ELEMENT_SET_NO":999,"REV_AT_EPOCH":6112,"BSTAR":-0.00064335,"MEAN_MOTION_DOT":-2.15e-6,"MEAN_MOTION_DDOT":0},{"OBJECT_NAME":"ONEWEB-0697","OBJECT_ID":"2024-188K","EPOCH":"2025-12-21T03:33:09.019584","MEAN_MOTION":13.11418252,"ECCENTRICITY":0.000111,"INCLINATION":87.8849,"RA_OF_ASC_NODE":56.5249,"ARG_OF_PERICENTER":82.0238,"MEAN_ANOMALY":278.1015,"EPHEMERIS_TYPE":0,"CLASSIFICATION_TYPE":"U","NORAD_CAT_ID":61603,"ELEMENT_SET_NO":999,"REV_AT_EPOCH":6111,"BSTAR":0.00022241,"MEAN_MOTION_DOT":9.2e-7,"MEAN_MOTION_DDOT":0},{"OBJECT_NAME":"ONEWEB-0698","OBJECT_ID":"2024-188L","EPOCH":"2025-12-21T04:51:16.503840","MEAN_MOTION":13.1141712,"ECCENTRICITY":0.0001771,"INCLINATION":87.885,"RA_OF_ASC_NODE":56.5296,"ARG_OF_PERICENTER":65.1837,"MEAN_ANOMALY":294.9475,"EPHEMERIS_TYPE":0,"CLASSIFICATION_TYPE":"U","NORAD_CAT_ID":61604,"ELEMENT_SET_NO":999,"REV_AT_EPOCH":6114,"BSTAR":-0.0012386,"MEAN_MOTION_DOT":-4.26e-6,"MEAN_MOTION_DDOT":0},{"OBJECT_NAME":"ONEWEB-0699","OBJECT_ID":"2024-188M","EPOCH":"2025-12-21T03:35:44.820384","MEAN_MOTION":13.10370891,"ECCENTRICITY":0.0001213,"INCLINATION":87.8815,"RA_OF_ASC_NODE":71.7537,"ARG_OF_PERICENTER":86.0701,"MEAN_ANOMALY":274.0565,"EPHEMERIS_TYPE":0,"CLASSIFICATION_TYPE":"U","NORAD_CAT_ID":61605,"ELEMENT_SET_NO":999,"REV_AT_EPOCH":5999,"BSTAR":0.00023733,"MEAN_MOTION_DOT":9.5e-7,"MEAN_MOTION_DDOT":0},{"OBJECT_NAME":"ONEWEB-0700","OBJECT_ID":"2024-188N","EPOCH":"2025-12-21T03:38:08.844000","MEAN_MOTION":13.10368007,"ECCENTRICITY":0.000102,"INCLINATION":87.8822,"RA_OF_ASC_NODE":71.6397,"ARG_OF_PERICENTER":116.8627,"MEAN_ANOMALY":243.2605,"EPHEMERIS_TYPE":0,"CLASSIFICATION_TYPE":"U","NORAD_CAT_ID":61606,"ELEMENT_SET_NO":999,"REV_AT_EPOCH":5998,"BSTAR":6.0531e-5,"MEAN_MOTION_DOT":3.4e-7,"MEAN_MOTION_DDOT":0},{"OBJECT_NAME":"ONEWEB-0701","OBJECT_ID":"2024-188P","EPOCH":"2025-12-21T04:02:01.663584","MEAN_MOTION":13.10372558,"ECCENTRICITY":0.000109,"INCLINATION":87.8808,"RA_OF_ASC_NODE":71.751,"ARG_OF_PERICENTER":80.5811,"MEAN_ANOMALY":279.5439,"EPHEMERIS_TYPE":0,"CLASSIFICATION_TYPE":"U","NORAD_CAT_ID":61607,"ELEMENT_SET_NO":999,"REV_AT_EPOCH":5999,"BSTAR":-0.0016736,"MEAN_MOTION_DOT":-5.72e-6,"MEAN_MOTION_DDOT":0},{"OBJECT_NAME":"ONEWEB-0702","OBJECT_ID":"2024-188Q","EPOCH":"2025-12-20T20:47:52.516320","MEAN_MOTION":13.11414282,"ECCENTRICITY":7.69e-5,"INCLINATION":87.8823,"RA_OF_ASC_NODE":56.4808,"ARG_OF_PERICENTER":84.4851,"MEAN_ANOMALY":275.6365,"EPHEMERIS_TYPE":0,"CLASSIFICATION_TYPE":"U","NORAD_CAT_ID":61608,"ELEMENT_SET_NO":999,"REV_AT_EPOCH":6111,"BSTAR":0.0014148,"MEAN_MOTION_DOT":5.14e-6,"MEAN_MOTION_DDOT":0}]
