ONEWEB-0703             
1 56724U 23068Q   25355.13195201  .00000275  00000+0  69725-3 0  9990
2 56724  87.8998 294.7416 0002812  69.4976 290.6456 13.15551193125848
ONEWEB-0721             
1 56725U 23068R   25355.11294561 -.00000037  00000+0 -12317-3 0  9991
2 56725  86.6803 142.3266 0001486  99.5354 260.5947 13.22454280134402
ONEWEB-0015             
1 61594U 24188A   25355.15650856  .00000477  00000+0  13095-2 0  9991
2 61594  87.8844  56.5502 0002248 115.0324 245.1037 13.11417035 61129
ONEWEB-0687             
1 61595U 24188B   25355.16045935  .00000058  00000+0  11649-3 0  9998
2 61595  87.9096  41.2943 0001751 118.4730 241.6578 13.17648258 62453
ONEWEB-0688             
1 61596U 24188C   25355.11321589  .00000118  00000+0  27086-3 0  9995
2 61596  87.9089  41.3028 0002687 119.9298 240.2100 13.17648160 62442
ONEWEB-0689             
1 61597U 24188D   25355.11410925 -.00000134  00000+0 -41485-3 0  9998
2 61597  87.8842  56.4936 0001504 109.9560 250.1730 13.11413206 61119
ONEWEB-0690             
1 61598U 24188E   25355.20057250 -.00000504  00000+0 -14589-2 0  9992
2 61598  87.8865  56.4917 0002192  86.0672 274.0706 13.11414153 61308
ONEWEB-0691             
1 61599U 24188F   25355.19548443 -.00000317  00000+0 -93122-3 0  9993
2 61599  87.8836  56.3914 0002029 113.0763 247.0579 13.11413121 61159
ONEWEB-0692             
1 61600U 24188G   25355.13953561 -.00000266  00000+0 -78654-3 0  9997
2 61600  87.8849  56.5474 0000952  79.7863 280.3373 13.11418555 61137
ONEWEB-0693             
1 61601U 24188H   25355.20096840  .00000062  00000+0  12629-3 0  9996
2 61601  87.9093  41.3057 0002567  89.5425 270.6000 13.17649971 62444
ONEWEB-0695             
1 61602U 24188J   25355.11580237 -.00000215  00000+0 -64335-3 0  9998
2 61602  87.8851  56.5412 0001175 108.2738 251.8518 13.11413328 61127
ONEWEB-0697             
1 61603U 24188K   25355.14802106  .00000092  00000+0  22241-3 0  9995
2 61603  87.8849  56.5249 0001110  82.0238 278.1015 13.11418252 61110
ONEWEB-0698             
1 61604U 24188L   25355.20227435 -.00000426  00000+0 -12386-2 0  9990
2 61604  87.8850  56.5296 0001771  65.1837 294.9475 13.11417120 61147
ONEWEB-0699             
1 61605U 24188M   25355.14982431  .00000095  00000+0  23733-3 0  9997
2 61605  87.8815  71.7537 0001213  86.0701 274.0565 13.10370891 59990
ONEWEB-0700             
1 61606U 24188N   25355.15149125  .00000034  00000+0  60531-4 0  9995
2 61606  87.8822  71.6397 0001020 116.8627 243.2605 13.10368007 59985
ONEWEB-0701             
1 61607U 24188P   25355.16807481 -.00000572  00000+0 -16736-2 0  9998
2 61607  87.8808  71.7510 0001090  80.5811 279.5439 13.10372558 59991
ONEWEB-0702             
1 61608U 24188Q   25354.86658005  .00000514  00000+0  14148-2 0  9990
2 61608  87.8823  56.4808 0000769  84.4851 275.6365 13.11414282 61112
